DONGPO 02               
1 53452U 22098J   26164.99966420  .00113495  00000+0  78991-3 0  9993
2 53452  97.5515 295.9132 0002034 282.6019  77.5017 15.74035042214297
DONGPO 01               
1 53453U 22098K   26166.64088301  .00083852  00000+0  63344-3 0  9990
2 53453  97.5586 298.2260 0001729 235.3912 124.7188 15.72195350214517
STARLINK-4400           
1 53468U 22099D   26166.58340299 -.00002148  00000+0 -14488-3 0  9993
2 53468  97.3554 285.6858 0001843 112.1504 247.9919 15.05661721210708
STARLINK-4621           
1 53676U 22105AE  26166.58617565  .00000407  00000+0  32168-4 0  9995
2 53676  97.3585  45.7007 0002474  78.7902 281.3604 15.05653034207969
SHERPA-LTC2             
1 53754U 22107BG  26166.48621245  .00004663  00000+0  24279-3 0  9994
2 53754  53.2349 227.5314 0394004 221.2720 135.7852 14.69697907202296
CENTISPACE-1 S3         
1 53757U 22108A   26166.56605159  .00000407  00000+0  11991-3 0  9992
2 53757  53.5335  61.9625 0009272 350.6693   9.4108 14.61250892201298
CENTISPACE-1 S4         
1 53758U 22108B   26166.55109464  .00000573  00000+0  15123-3 0  9995
2 53758  53.5311  59.5499 0008468 338.6167  21.4453 14.61931526201324
BLUEWALKER-3            
1 53807U 22111AL  26165.97071146  .00005181  00000+0  14567-3 0  9995
2 53807  53.2301  44.3776 0006500 154.1629 205.9702 15.38247947209869
YUNHAI-1 03             
1 53877U 22115A   26166.58119318  .00000276  00000+0  11735-3 0  9992
2 53877  98.5531 164.7487 0005834  59.5150 300.6610 14.32717006195287
CENTISPACE-1 S5         
1 54020U 22126A   26166.58055947  .00000474  00000+0  12843-3 0  9993
2 54020  54.9978 219.3898 0014557  69.4723 290.7832 14.63012380196801
CENTISPACE-1 S6         
1 54021U 22126B   26166.57293704  .00000287  00000+0  93656-4 0  9992
2 54021  54.9982 221.2780 0016403  69.4948 290.7805 14.62289518196763
OTB-3-GAZELLE           
1 54023U 22127A   26166.53395596  .00000115  00000+0  47522-4 0  9994
2 54023  98.3943 158.2634 0012861 188.2176 171.8805 14.42673920194127
ASO-S                   
1 54029U 22129A   26166.60001955  .00000169  00000+0  52663-4 0  9994
2 54029  98.2747 171.7032 0015759  97.1195 263.1793 14.52061083195195
HJ-2E                   
1 54035U 22132A   26166.64166707  .00006845  00000+0  29850-3 0  9994
2 54035  97.3791 171.0458 0020744  20.4550 339.7512 15.22295319204188
COSMOS 2561             
1 54109U 22137A   26166.48534792  .00010701  00000+0  18110-3 0  9999
2 54109  96.9179 225.5499 0010870  41.8672 318.3410 15.51664501206082
GONETS-M 23             
1 54150U 22139A   26166.57233203  .00000030  00000+0  14689-3 0  9991
2 54150  82.5073 349.2982 0020835 223.3567 136.5874 12.42890805165448
GONETS-M 24             
1 54151U 22139B   26166.62592279  .00000027  00000+0  12357-3 0  9995
2 54151  82.4989 348.3257 0015966 233.6043 126.3564 12.42891430165450
GONETS-M 25             
1 54152U 22139C   26166.61230675  .00000005  00000+0 -35757-4 0  9991
2 54152  82.5055 349.0197 0019884 232.4118 127.5156 12.42889944165457
SKIF-D                  
1 54153U 22139D   26166.25817278  .00000006  00000+0  00000+0 0  9990
2 54153  89.9511  96.6682 0007386 200.0238 159.9932  5.00428011 64019
MATS                    
1 54227U 22147A   26166.52010028  .00002405  00000+0  17211-3 0  9990
2 54227  97.6819 168.1242 0011844 196.5357 163.5485 15.05347164197511
JILIN-1 GAOFEN 03D54    
1 54254U 22155D   26166.20867375  .00317969  43065-4  72720-3 0  9992
2 54254  97.6113 319.0559 0005279 263.8870  96.1805 15.97367336199983
EOS-6 (OCEANSAT-3)      
1 54361U 22158A   26166.64143847  .00000234  00000+0  76430-4 0  9997
2 54361  98.3539 264.8561 0001294  50.1589 309.9718 14.46999662187610
DONGPO 09               
1 54685U 22167D   26166.65141928  .00009597  00000+0  27349-3 0  9990
2 54685  97.6891 337.5894 0003513 119.5582 240.6012 15.36305022195212
DONGPO 08               
1 54686U 22167E   26166.62920559  .00009098  00000+0  28217-3 0  9994
2 54686  97.6856 334.7515 0008556 165.4589 194.6901 15.33618973195081
2022-167F               
1 54687U 22167F   26166.57588278  .00226138  21267-4  68693-3 0  9998
2 54687  97.6113 354.2936 0001921 267.9096  92.1958 15.92059060196572
DONGPO 10               
1 54689U 22167H   26166.63667065  .00009150  00000+0  27678-3 0  9997
2 54689  97.6936 336.7072 0006264 114.3730 245.8167 15.34426501195121
JILIN-1 GAOFEN 03D48    
1 54695U 22167P   26166.63515263  .00009695  00000+0  28600-3 0  9996
2 54695  97.6871 336.0830 0007593 119.3280 240.8723 15.35192375195158
STAR VIBE               
1 55009U 23001A   26166.61351149  .00012329  00000+0  28537-3 0  9990
2 55009  97.3173 231.0709 0007146 116.9142 243.2836 15.42579231191980
BRO-8                   
1 55011U 23001C   26166.62694301  .00026612  00000+0  49257-3 0  9996
2 55011  97.3218 231.7878 0006812 128.4054 231.7810 15.48975325191968
CONNECTA T1.2           
1 55012U 23001D   26166.55760009  .00035475  00000+0  61878-3 0  9998
2 55012  97.3277 237.2191 0006662 107.7292 252.4688 15.50612645192296
