OBJECT_NAME,OBJECT_ID,EPOCH,MEAN_MOTION,ECCENTRICITY,INCLINATION,RA_OF_ASC_NODE,ARG_OF_PERICENTER,MEAN_ANOMALY,EPHEMERIS_TYPE,CLASSIFICATION_TYPE,NORAD_CAT_ID,ELEMENT_SET_NO,REV_AT_EPOCH,BSTAR,MEAN_MOTION_DOT,MEAN_MOTION_DDOT
DONGPO 02,2022-098J,2026-06-13T23:59:30.986880,15.74035042,.00020347,97.5515,295.9132,282.6019,77.5017,0,U,53452,999,21429,.78990934E-3,.113495E-2,0
DONGPO 01,2022-098K,2026-06-15T15:22:52.292064,15.72195350,.00017298,97.5586,298.2260,235.3912,124.7188,0,U,53453,999,21451,.63343731E-3,.83852E-3,0
STARLINK-4400,2022-099D,2026-06-15T14:00:06.018336,15.05661721,.00018432,97.3554,285.6858,112.1504,247.9919,0,U,53468,999,21070,-.14487859E-3,-.2148E-4,0
STARLINK-4621,2022-105AE,2026-06-15T14:04:05.576160,15.05653034,.00024748,97.3585,45.7007,78.7902,281.3604,0,U,53676,999,20796,.32168017E-4,.407E-5,0
SHERPA-LTC2,2022-107BG,2026-06-15T11:40:08.755680,14.69697907,.03940041,53.2349,227.5314,221.2720,135.7852,0,U,53754,999,20229,.24279122E-3,.4663E-4,0
CENTISPACE-1 S3,2022-108A,2026-06-15T13:35:06.857376,14.61250892,.00092724,53.5335,61.9625,350.6693,9.4108,0,U,53757,999,20129,.11990523E-3,.407E-5,0
CENTISPACE-1 S4,2022-108B,2026-06-15T13:13:34.576896,14.61931526,.00084687,53.5311,59.5499,338.6167,21.4453,0,U,53758,999,20132,.15122767E-3,.573E-5,0
BLUEWALKER-3,2022-111AL,2026-06-14T23:17:49.470144,15.38247947,.00065008,53.2301,44.3776,154.1629,205.9702,0,U,53807,999,20986,.1456734E-3,.5181E-4,0
YUNHAI-1 03,2022-115A,2026-06-15T13:56:55.090752,14.32717006,.00058347,98.5531,164.7487,59.5150,300.6610,0,U,53877,999,19528,.11735157E-3,.276E-5,0
CENTISPACE-1 S5,2022-126A,2026-06-15T13:56:00.338208,14.63012380,.00145575,54.9978,219.3898,69.4723,290.7832,0,U,54020,999,19680,.12842844E-3,.474E-5,0
CENTISPACE-1 S6,2022-126B,2026-06-15T13:45:01.760256,14.62289518,.00164035,54.9982,221.2780,69.4948,290.7805,0,U,54021,999,19676,.93656033E-4,.287E-5,0
OTB-3-GAZELLE,2022-127A,2026-06-15T12:48:53.794944,14.42673920,.00128615,98.3943,158.2634,188.2176,171.8805,0,U,54023,999,19412,.47521587E-4,.115E-5,0
ASO-S,2022-129A,2026-06-15T14:24:01.689120,14.52061083,.00157596,98.2747,171.7032,97.1195,263.1793,0,U,54029,999,19519,.52662731E-4,.169E-5,0
HJ-2E,2022-132A,2026-06-15T15:24:00.034848,15.22295319,.00207447,97.3791,171.0458,20.4550,339.7512,0,U,54035,999,20418,.29849908E-3,.6845E-4,0
COSMOS 2561,2022-137A,2026-06-15T11:38:54.060288,15.51664501,.001087,96.9179,225.5499,41.8672,318.3410,0,U,54109,999,20608,.1811E-3,.10701E-3,0
GONETS-M 23,2022-139A,2026-06-15T13:44:09.487392,12.42890805,.00208353,82.5073,349.2982,223.3567,136.5874,0,U,54150,999,16544,.14688661E-3,.3E-6,0
GONETS-M 24,2022-139B,2026-06-15T15:01:19.729056,12.42891430,.00159667,82.4989,348.3257,233.6043,126.3564,0,U,54151,999,16545,.12357241E-3,.27E-6,0
GONETS-M 25,2022-139C,2026-06-15T14:41:43.303200,12.42889944,.00198845,82.5055,349.0197,232.4118,127.5156,0,U,54152,999,16545,-.35756718E-4,.5E-7,0
SKIF-D,2022-139D,2026-06-15T06:11:46.128192,5.00428011,.00073861,89.9511,96.6682,200.0238,159.9932,0,U,54153,999,6401,0,.6E-7,0
MATS,2022-147A,2026-06-15T12:28:56.664192,15.05347164,.00118448,97.6819,168.1242,196.5357,163.5485,0,U,54227,999,19751,.17211088E-3,.2405E-4,0
JILIN-1 GAOFEN 03D54,2022-155D,2026-06-15T05:00:29.412000,15.97367336,.00052791,97.6113,319.0559,263.8870,96.1805,0,U,54254,999,19998,.72719635E-3,.317969E-2,.43065491E-4
EOS-6 (OCEANSAT-3),2022-158A,2026-06-15T15:23:40.283808,14.46999662,.00012948,98.3539,264.8561,50.1589,309.9718,0,U,54361,999,18761,.76429855E-4,.234E-5,0
DONGPO 09,2022-167D,2026-06-15T15:38:02.625792,15.36305022,.00035137,97.6891,337.5894,119.5582,240.6012,0,U,54685,999,19521,.27349356E-3,.9597E-4,0
DONGPO 08,2022-167E,2026-06-15T15:06:03.362976,15.33618973,.00085563,97.6856,334.7515,165.4589,194.6901,0,U,54686,999,19508,.28217059E-3,.9098E-4,0
2022-167F,2022-167F,2026-06-15T13:49:16.272192,15.92059060,.00019216,97.6113,354.2936,267.9096,92.1958,0,U,54687,999,19657,.68692676E-3,.226138E-2,.21266902E-4
DONGPO 10,2022-167H,2026-06-15T15:16:48.344160,15.34426501,.00062644,97.6936,336.7072,114.3730,245.8167,0,U,54689,999,19512,.27678268E-3,.915E-4,0
JILIN-1 GAOFEN 03D48,2022-167P,2026-06-15T15:14:37.187232,15.35192375,.00075937,97.6871,336.0830,119.3280,240.8723,0,U,54695,999,19515,.28600069E-3,.9695E-4,0
STAR VIBE,2023-001A,2026-06-15T14:43:27.392736,15.42579231,.00071464,97.3173,231.0709,116.9142,243.2836,0,U,55009,999,19198,.28536714E-3,.12329E-3,0
BRO-8,2023-001C,2026-06-15T15:02:47.876064,15.48975325,.00068129,97.3218,231.7878,128.4054,231.7810,0,U,55011,999,19196,.49257425E-3,.26612E-3,0
CONNECTA T1.2,2023-001D,2026-06-15T13:22:56.647776,15.50612645,.00066624,97.3277,237.2191,107.7292,252.4688,0,U,55012,999,19229,.61877637E-3,.35475E-3,0
